OBJECT_NAME,OBJECT_ID,EPOCH,MEAN_MOTION,ECCENTRICITY,INCLINATION,RA_OF_ASC_NODE,ARG_OF_PERICENTER,MEAN_ANOMALY,EPHEMERIS_TYPE,CLASSIFICATION_TYPE,NORAD_CAT_ID,ELEMENT_SET_NO,REV_AT_EPOCH,BSTAR,MEAN_MOTION_DOT,MEAN_MOTION_DDOT
SAR-LUPE 2,2007-030A,2026-07-07T14:19:20.972064,15.52960983,.00036681,98.1053,295.6108,211.7722,148.3308,0,U,31797,999,6010,.44957729E-3,.27948E-3,0
SAPPHIRE,2013-009C,2026-07-07T14:07:09.748992,14.35246105,.00110996,98.4271,7.5605,182.1132,178.0008,0,U,39088,999,69950,.43094183E-4,.81E-6,0
PRAETORIAN SDA_602,2025-203A,2026-07-06T21:41:37.017024,13.83887528,.00068215,81.3035,352.5106,136.8371,223.3321,0,U,65565,999,4142,.62796537E-4,.82E-6,0
PRAETORIAN SDA_603,2025-203B,2026-07-07T10:31:43.554720,13.83961968,.00105303,81.3041,351.9373,133.7942,226.4087,0,U,65566,999,4150,.14699692E-3,.175E-5,0
PRAETORIAN SDA_604,2025-203C,2026-07-07T09:34:17.275584,13.83049700,.00063163,81.3058,352.4181,139.2743,220.8887,0,U,65567,999,4147,.53902405E-4,.71E-6,0
PRAETORIAN SDA_605,2025-203D,2026-07-02T20:59:13.896096,13.83435094,.0008905,81.3021,356.2472,142.0754,218.1031,0,U,65568,999,4086,.92536E-5,.22E-6,0
PRAETORIAN SDA_606,2025-203E,2026-07-07T10:00:16.214976,13.83199684,.00069471,81.3060,352.2818,133.9815,226.1916,0,U,65569,999,4148,.50108539E-4,.67E-6,0
PRAETORIAN SDA_607,2025-203F,2026-07-06T21:42:03.236832,13.83758206,.00097341,81.3044,352.3844,134.7396,225.4555,0,U,65570,999,4143,.11950814E-3,.144E-5,0
PRAETORIAN SDA_608,2025-203G,2026-07-07T11:10:20.879616,13.83818948,.00068235,81.3013,352.0321,138.2747,221.8931,0,U,65571,999,4149,.48233856E-4,.65E-6,0
PRAETORIAN SDA_609,2025-203H,2026-07-07T11:09:09.675648,13.84205995,.00074004,81.3036,352.0139,132.2450,227.9335,0,U,65572,999,4150,-.13587048E-2,-.1502E-4,0
PRAETORIAN SDA_610,2025-203J,2026-07-07T10:42:12.306528,13.83769264,.00075912,81.3013,352.0099,137.6923,222.4821,0,U,65573,999,4149,.28694851E-4,.44E-6,0
PRAETORIAN SDA_611,2025-203K,2026-07-07T10:53:01.281984,13.83311071,.00064113,81.3021,352.1829,141.5087,218.6527,0,U,65574,999,4148,.9253502E-4,.114E-5,0
PRAETORIAN SDA_612,2025-203L,2026-07-07T10:01:38.937792,13.85040322,.00101139,81.3034,351.7529,133.9206,226.2787,0,U,65575,999,4151,.14720394E-3,.179E-5,0
PRAETORIAN SDA_613,2025-203M,2026-07-07T09:30:00.512064,13.82767218,.00065575,81.3005,352.2489,132.8254,227.3454,0,U,65576,999,4147,.53369341E-4,.7E-6,0
PRAETORIAN SDA_614,2025-203N,2026-07-06T21:43:15.230496,13.84778018,.0007966,81.3010,352.3107,133.0913,227.0912,0,U,65577,999,4144,-.10467944E-4,0,0
PRAETORIAN SDA_615,2025-203P,2026-07-07T11:09:31.364640,13.84437656,.00099256,81.3024,351.7682,132.5428,227.6569,0,U,65578,999,4151,.14436367E-3,.174E-5,0
PRAETORIAN SDA_616,2025-203Q,2026-07-06T22:43:39.256032,13.83270525,.00062057,81.3068,352.8098,141.3083,218.8518,0,U,65579,999,4141,.14623056E-3,.172E-5,0
PRAETORIAN SDA_617,2025-203R,2026-07-06T21:33:01.590912,13.83151490,.00082464,81.3042,352.6844,133.3059,226.8786,0,U,65580,999,4141,.39282641E-4,.55E-6,0
PRAETORIAN SDA_618,2025-203S,2026-07-07T10:20:47.389920,13.84225388,.00106323,81.3026,351.7291,136.0247,224.1757,0,U,65581,999,4151,.79153943E-4,.1E-5,0
PRAETORIAN SDA_619,2025-203T,2026-07-06T21:32:43.894464,13.83805775,.00090841,81.3057,352.5447,134.6911,225.4987,0,U,65582,999,4205,.15346334E-3,.182E-5,0
PRAETORIAN SDA_620,2025-203U,2026-07-07T10:27:21.847392,13.83304308,.00084866,81.3033,352.0725,130.2691,229.9208,0,U,65583,999,4149,.13858356E-3,.164E-5,0
PRAETORIAN SDA_621,2025-203V,2026-07-07T09:44:11.096736,13.83803578,.00083203,81.3027,352.0081,127.3400,232.8516,0,U,65584,999,4149,.66030364E-4,.85E-6,0
PRAETORIAN SDA_601,2025-203W,2026-07-07T10:59:23.132832,13.83169397,.00062869,81.3051,352.2799,142.9490,217.2101,0,U,65585,999,4148,-.37303621E-3,-.397E-5,0
VICTUS HAZE PUMA,2026-142A,2026-07-07T14:42:41.186016,15.20811324,.00252152,97.4473,86.0040,294.1906,65.6694,0,U,69646,999,277,.13599791E-3,.2952E-4,0
